C/2020 N1 (PANSTARRS),h,03/12.6503/2021,29.7404,279.8892,186.7810,1.000608,1.317189,2000,12.5,4.0
# From MPEC 2021-P47
C/2020 N2 (ATLAS),e,161.0395,257.1703,331.2917,102.8944,0.0009443,0.98260284,0.0000,08/24.1440/2020,2000,g 16.0,3.2
# From MPEC 2023-XP6
C/2020 O2 (Amaral),h,08/28.0981/2021,71.7622,256.7879,10.2618,1.000780,4.861116,2000,8.0,3.2
# From MPEC 2023-C45
P/2020 O3 (PANSTARRS),e,8.4446,266.8188,81.5095,4.646938,0.0983906,0.10270232,113.9781,04/01.0/2024,2000,g 12.0,4.0
# From MPEC 2021-BE3
C/2020 P1 (NEOWISE),h,10/20.7762/2020,45.1689,53.4754,8.9009,1.000371,0.340697,2000,14.0,3.2
# From MPEC 2024-F34
C/2020 P3 (ATLAS),h,04/22.0267/2021,61.8835,19.4704,82.3038,1.002638,6.813355,2000,6.0,4.0
# From MPEC 2022-PB4
C/2020 PV6 (PANSTARRS),e,128.1999,329.1456,71.3479,41.98804,0.0036226,0.94538276,3.3251,04/01.0/2024,2000,g 10.0,4.0
# From MPEC 2022-L66
C/2020 Q1 (Borisov),e,142.9443,52.3962,9.9810,61.64344,0.0020365,0.97861040,0.0000,08/14.7250/2020,2000,g 14.0,4.0
# From MPEC 2023-CD7
C/2020 Q2 (PANSTARRS),e,3.3354,179.8201,118.2862,10.62329,0.0284653,0.49018751,43.4176,04/01.0/2024,2000,g 12.0,3.2
# From MPEC 2024-F34
C/2020 R2 (PANSTARRS),e,53.2272,195.0997,211.8393,423.7111,0.0001130,0.98891923,0.0000,02/25.2083/2022,2000,g  9.0,4.0
# From MPEC 2022-K19
C/2020 R4 (ATLAS),e,164.4334,323.2608,46.6200,99.21229,0.0009974,0.98967610,0.0000,03/02.3554/2021,2000,g 13.5,4.0
# From MPEC 2023-C45
P/2020 R5 (PANSTARRS),e,11.4411,272.9524,82.7229,4.990291,0.0884128,0.31397352,124.0245,04/01.0/2024,2000,g  9.5,6.0
# From MPEC 2021-Y10
C/2020 R6 (Rankin),e,82.8308,12.1898,271.9990,300.9524,0.0001888,0.98957649,0.0000,09/07.6902/2019,2000,g 11.0,4.0
# From MPEC 2024-EF7
C/2020 R7 (ATLAS),h,09/16.2114/2022,114.9023,268.2976,347.8275,1.000165,2.955224,2000,7.0,3.2
# From MPEC 2021-BE3
P/2020 S1 (PANSTARRS),e,13.7221,129.5142,255.0592,5.997590,0.0671025,0.50754099,78.4684,04/01.0/2024,2000,g 14.0,4.0
# From MPEC 2022-ST7
C/2020 S2 (PANSTARRS),e,22.3999,197.6964,202.3616,10.23765,0.0300887,0.82818578,35.9765,04/01.0/2024,2000,g 17.0,4.0
# From MPEC 2024-F34
C/2020 S3 (Erasmus),e,20.0221,222.5898,350.0646,145.8538,0.0005595,0.99728910,0.0000,12/11.6174/2020,2000,g 13.5,3.2
# From MPEC 2024-F34
C/2020 S4 (PANSTARRS),h,02/09.2875/2023,20.5675,117.7064,21.0060,1.001951,3.369771,2000,8.5,3.2
# From MPEC 2021-BE3
P/2020 S5 (PANSTARRS),e,12.3446,316.0512,53.2365,4.056197,0.1206495,0.33806541,160.5805,04/01.0/2024,2000,g 14.5,4.0
# From MPEC 2021-BE3
P/2020 S7 (PANSTARRS),e,16.0813,328.0932,40.6060,5.033748,0.0872704,0.41029214,107.2841,04/01.0/2024,2000,g 14.5,4.0
# From MPEC 2021-P47
C/2020 S8 (Lemmon),e,108.5288,24.0601,160.2105,251.2751,0.0002474,0.99061328,0.0000,04/10.6891/2021,2000,g 12.5,4.0
# From MPEC 2022-TD3
C/2020 T2 (Palomar),e,27.8376,83.0586,150.4265,289.3099,0.0002003,0.99288731,0.0000,07/10.7089/2021,2000,g 11.0,3.2
# From MPEC 2021-N06
P/2020 T3 (PANSTARRS),e,7.2988,73.9933,357.0482,3.516629,0.1494563,0.59237832,174.2162,04/01.0/2024,2000,g 18.0,3.2
# From MPEC 2021-N06
C/2020 T4 (PANSTARRS),h,07/05.5452/2021,83.8528,50.6200,79.5897,1.000389,2.190311,2000,13.0,3.2
# From MPEC 2021-BE3
C/2020 T5 (Lemmon),e,66.5451,237.8291,90.3621,679.2558,0.0000557,0.99721178,0.0000,10/08.7946/2020,2000,g 16.0,4.0
# From MPEC 2021-N06
P/2020 U2 (PANSTARRS),e,6.4199,342.8706,84.6800,3.777972,0.1342196,0.51135887,159.9104,04/01.0/2024,2000,g 18.0,4.0
# From MPEC 2021-W31
C/2020 U3 (Rankin),e,30.1457,282.6446,124.3881,67.18190,0.0017899,0.96606841,2.0578,04/01.0/2024,2000,g 15.0,4.0
# From MPEC 2023-W26
C/2020 U4 (PANSTARRS),h,04/09.5365/2022,167.0170,120.3586,70.0874,1.000479,5.360123,2000,7.0,4.0
# From MPEC 2024-EF7
C/2020 U5 (PANSTARRS),e,97.2889,107.3176,75.4477,4277,0.0000035,0.99912158,0.0000,04/28.0382/2022,2000,g  8.0,4.0
# From MPEC 2024-F34
C/2020 V2 (ZTF),h,05/08.4623/2023,131.6119,212.3717,162.3961,1.000807,2.227677,2000,4.9,4.0
# From MPEC 2023-D72
P/2020 V3 (PANSTARRS),e,23.0311,198.2567,249.5353,8.396005,0.0405131,0.25759709,46.3500,04/01.0/2024,2000,g  8.3,4.0
# From MPEC 2024-F34
P/2020 V4 (Rankin),e,14.2436,203.4843,257.1066,9.381701,0.0342990,0.45110967,33.8468,04/01.0/2024,2000,g  9.0,4.0
# From MPEC 2021-BE3
P/2020 W1 (Rankin),e,10.7816,124.3941,265.2230,7.220844,0.0507951,0.26618193,73.7442,04/01.0/2024,2000,g 10.0,4.0
# From MPEC 2021-BE3
C/2020 W5 (Lemmon),h,11/30.4413/2020,88.6117,75.4714,24.5306,1.001464,3.366750,2000,15.0,4.0
# From MPEC 2024-F34
P/2020 WJ5 (Lemmon),e,22.2901,177.7970,338.0716,6.015186,0.0668083,0.17164140,67.2084,04/01.0/2024,2000,g  8.5,4.0
# From MPEC 2024-F34
P/2020 X1 (ATLAS),e,31.6960,55.9805,323.4840,4.533325,0.1021125,0.36516138,137.8758,04/01.0/2024,2000,g 13.0,4.0
# From MPEC 2024-A43
C/2020 X2 (ATLAS),e,18.1847,105.3873,347.4465,16.49139,0.0147170,0.76789296,18.1227,04/01.0/2024,2000,g 10.6,4.0
# From MPEC 2021-S45
C/2020 X4 (Leonard),e,80.6307,161.9143,140.3175,40.73664,0.0037908,0.87175562,4.6706,04/01.0/2024,2000,g  9.0,4.0
# From MPEC 2024-C04
C/2020 Y2 (ATLAS),e,101.1948,26.5335,266.4197,2097,0.0000103,0.99850076,0.0000,06/18.3549/2022,2000,g  6.5,4.0
# From MPEC 2021-R75
C/2020 Y3 (ATLAS),e,83.1091,191.4184,341.8941,139.5957,0.0005976,0.98572093,0.0000,12/03.2572/2020,2000,g 13.5,4.0
# From MPEC 2023-CD7
C/2021 A1 (Leonard),h,01/03.3766/2022,132.7457,255.9085,225.1405,1.000111,0.616152,2000,8.5,4.0
# From MPEC 2022-F14
C/2021 A2 (NEOWISE),e,107.0124,125.1400,338.7686,228.6901,0.0002850,0.99382268,0.0000,01/22.2171/2021,2000,g 13.5,4.0
# From MPEC 2022-ED3
C/2021 A4 (NEOWISE),e,111.5690,307.1032,204.7222,42.38364,0.0035720,0.97290099,0.0000,03/19.5553/2021,2000,g 16.0,4.0
# From MPEC 2021-BE3
P/2021 A5 (PANSTARRS),e,18.1855,328.8238,61.3797,3.047479,0.1852648,0.13992003,228.7128,04/01.0/2024,2000,g 15.0,4.0
# From MPEC 2023-O39
C/2021 A6 (PANSTARRS),e,75.5868,164.0598,351.6116,8910,0.0000012,0.99911060,0.0000,05/02.9083/2021,2000,g  7.0,4.0
# From MPEC 2022-M88
C/2021 A7 (NEOWISE),e,78.1712,154.4687,355.9864,1865,0.0000122,0.99894649,0.0000,07/15.1336/2021,2000,g 10.0,4.0
# From MPEC 2024-EF7
C/2021 A9 (PANSTARRS),h,12/02.2030/2023,158.0128,314.8334,211.4901,1.001105,7.760156,2000,6.0,4.0
# From MPEC 2021-N06
C/2021 A10 (NEOWISE),e,151.9534,188.7491,82.5097,89.49682,0.0011641,0.98588355,0.0000,03/15.0407/2021,2000,g 19.0,4.0
# From MPEC 2022-L66
C/2021 B2 (PANSTARRS),e,38.0822,120.4954,335.0116,380.4760,0.0001328,0.99339819,0.0000,05/04.5947/2021,2000,g 14.0,4.0
# From MPEC 2021-N06
C/2021 B3 (NEOWISE),e,119.4750,67.2745,293.5387,34.28036,0.0049106,0.93691084,5.4897,04/01.0/2024,2000,g 13.5,4.0
# From MPEC 2023-KD6
C/2021 C1 (Rankin),e,143.0432,186.8786,336.1565,3406,0.0000050,0.99897998,0.0000,12/06.5909/2020,2000,g 11.5,4.0
# From MPEC 2021-U31
P/2021 C2 (PANSTARRS),e,21.9402,66.4563,78.6978,9.537292,0.0334631,0.48776982,37.8905,04/01.0/2024,2000,g 12.0,4.0
# From MPEC 2021-N06
C/2021 C3 (Catalina),e,122.1733,181.9076,357.0234,61.07329,0.0020650,0.96277579,2.3628,04/01.0/2024,2000,g 14.0,4.0
# From MPEC 2022-M88
C/2021 C4 (ATLAS),e,132.8474,194.2674,320.1285,12192,0.0000007,0.99963109,0.0000,01/16.7897/2021,2000,g  9.0,4.0
# From MPEC 2023-R20
C/2021 C5 (PANSTARRS),e,50.7888,323.6742,270.9180,1844,0.0000124,0.99824188,0.0000,02/11.0160/2023,2000,g  9.0,4.0
# From MPEC 2022-YB4
C/2021 C6 (Lemmon),e,164.6043,332.3456,203.8218,4438,0.0000033,0.99926118,0.0000,11/12.5184/2021,2000,g 12.0,4.0
# From MPEC 2022-F14
C/2021 D1 (SWAN),e,31.4055,311.2476,72.3144,101.4682,0.0009643,0.99108880,0.0000,02/27.7352/2021,2000,g 13.0,4.0
# From MPEC 2023-J29
C/2021 D2 (ZTF),h,02/03.9283/2022,83.7951,305.6612,125.0320,1.001594,2.946645,2000,9.0,4.0
# From MPEC 2022-UY9
A/2021 E2,e,167.4894,190.8016,342.3122,213.5565,0.0003158,0.98930993,0.0000,12/10.0059/2020,2000,g 15.0,2.0
# From MPEC 2024-BE0
C/2021 E3 (ZTF),h,06/11.7865/2022,112.5338,104.4826,228.8338,1.000549,1.777130,2000,8.5,4.0
# From MPEC 2023-SQ0
A/2021 E4,e,116.3630,171.1638,48.2665,535.0728,0.0000796,0.99125913,0.0000,04/25.0325/2022,2000,g 13.5,22.0
# From MPEC 2022-QD9
C/2021 F1 (Lemmon-PANSTARRS),e,107.3163,203.4764,146.8769,242.2894,0.0002613,0.99588390,0.0000,04/06.7874/2022,2000,g 13.5,4.0
# From MPEC 2021-J72
C/2021 G1 (Leonard),e,131.5489,270.6997,107.4426,72.59733,0.0015934,0.95282621,1.5688,04/01.0/2024,2000,g 14.0,4.0
# From MPEC 2024-F34
C/2021 G2 (ATLAS),e,48.4746,221.0942,343.2902,114501,0.0000000,0.99995649,0.0000,09/09.3057/2024,2000,g  5.5,4.0
# From MPEC 2022-X67
C/2021 G3 (PANSTARRS),e,102.8696,147.3850,10.5820,13156,0.0000007,0.99960624,0.0000,10/17.9280/2021,2000,g 10.5,4.0
# From MPEC 2021-Y10
P/2021 HS (PANSTARRS),e,12.1568,262.3663,46.1390,4.194388,0.1147364,0.80956465,111.1959,04/01.0/2024,2000,g 22.0,4.0
# From MPEC 2022-C56
C/2021 J1 (Maury-Attard),e,92.7145,88.4059,147.2833,26.31180,0.0073026,0.93391683,8.3003,04/01.0/2024,2000,g 15.5,4.0
# From MPEC 2023-XP6
C/2021 J2 (PANSTARRS),e,156.2126,23.3313,171.9603,115.3846,0.0007952,0.95924355,0.7334,04/01.0/2024,2000,g 12.0,4.0
# From MPEC 2024-F34
P/2021 J3 (ATLAS),e,14.5246,111.1050,125.8572,8.914219,0.0370322,0.44901302,64.2433,04/01.0/2024,2000,g  7.0,4.0
# From MPEC 2022-O08
C/2021 K1 (ATLAS),e,16.2738,140.9146,184.2680,12.64599,0.0219167,0.80228410,23.3036,04/01.0/2024,2000,g 11.0,4.0
# From MPEC 2022-O01
C/2021 K2 (MASTER),h,09/09.6808/2021,100.8615,282.3172,343.3435,1.000923,5.468626,2000,8.0,4.0
# From MPEC 2022-L66
C/2021 K3 (Catalina),h,02/03.9433/2022,134.7771,114.5796,182.0525,1.004454,5.231705,2000,10.0,4.0
# From MPEC 2021-W31
P/2021 L2 (Leonard),e,21.0654,266.6547,51.4970,4.048529,0.1209924,0.52082985,118.8359,04/01.0/2024,2000,g 17.0,4.0
# From MPEC 2024-F34
C/2021 L3 (Borisov),h,02/14.6143/2022,78.5657,344.9943,91.6301,1.004384,8.458577,2000,6.0,4.0
# From MPEC 2022-TA0
P/2021 N1 (ZTF),e,11.4901,301.1510,21.2384,2.978680,0.1917203,0.67600911,197.4592,04/01.0/2024,2000,g 19.0,4.0
# From MPEC 2024-D33
P/2021 N2 (Fuls),e,13.0612,221.7318,177.5397,6.942611,0.0538790,0.45257293,46.8075,04/01.0/2024,2000,g  9.5,4.0
# From MPEC 2022-YB4
